CYGFM07                 
1 41890U 16078G   26086.58199404  .00028101  00000+0  39240-3 0  9998
2 41890  34.9463  51.1051 0005784 156.7059 203.3928 15.55833819516268
CYGFM03                 
1 41891U 16078H   26086.61718882  .00028525  00000+0  39837-3 0  9992
2 41891  34.9417  52.8405 0004689 143.6866 216.4177 15.55834721516245
FENGYUN 3D              
1 43010U 17072A   26086.88940208  .00000081  00000+0  60026-4 0  9992
2 43010  99.0062  59.8743 0000639 318.5207  41.5920 14.19720644433454
NOAA 20 (JPSS-1)        
1 43013U 17073A   26086.80208742  .00000081  00000+0  59509-4 0  9992
2 43013  98.7712  27.0114 0001866 113.2704 246.8668 14.19540671432929
GOES 17                 
1 43226U 18022A   26086.49211316 -.00000201  00000+0  00000+0 0  9991
2 43226   0.7281  86.9627 0001575 234.0510 311.5631  1.00271273 29608
FENGYUN 2H              
1 43491U 18050A   26086.84737752 -.00000144  00000+0  00000+0 0  9998
2 43491   2.8208  80.0368 0001725 172.9360 316.4207  1.00270339 28627
METOP-C                 
1 43689U 18087A   26086.84067344  .00000091  00000+0  61663-4 0  9997
2 43689  98.6727 147.9022 0002004  74.8583 285.2815 14.21502753383271
GEO-KOMPSAT-2A          
1 43823U 18100A   26086.82052528 -.00000363  00000+0  00000+0 0  9995
2 43823   0.0518  32.6671 0001578  16.7520 199.4821  1.00270533 26815
METEOR-M2 2             
1 44387U 19038A   26086.89893755 -.00000104  00000+0 -25021-4 0  9993
2 44387  98.9114  73.0047 0000239 207.0164 153.1002 14.24340140349725
ARKTIKA-M 1             
1 47719U 21016A   26086.24697042 -.00000098  00000+0  00000+0 0  9990
2 47719  63.2179  69.3783 7253959 269.5617  15.0995  2.00616454 37142
FENGYUN 3E              
1 49008U 21062A   26086.81216976 -.00000332  00000+0 -13580-3 0  9993
2 49008  98.7523  91.1244 0001422   7.2138 352.9058 14.19894917245037
GOES 18                 
1 51850U 22021A   26086.73323703  .00000078  00000+0  00000+0 0  9999
2 51850   0.0440  14.1065 0000414  36.8906 261.1117  1.00272063  5776
NOAA 21 (JPSS-2)        
1 54234U 22150A   26086.83659154  .00000060  00000+0  49361-4 0  9993
2 54234  98.7574  26.8967 0002756  74.8225 285.3255 14.19556745175006
METEOSAT-12 (MTG-I1)    
1 54743U 22170C   26086.83160412 -.00000026  00000+0  00000+0 0  9999
2 54743   0.7302  25.2563 0001909 288.5887 170.4266  1.00272463 12166
TIANMU-1 03             
1 55973U 23039A   26086.89014543  .00017201  00000+0  36844-3 0  9990
2 55973  97.5198 257.8355 0003476  50.8000 309.3556 15.44836407168275
TIANMU-1 04             
1 55974U 23039B   26086.84388473  .00018803  00000+0  39659-3 0  9998
2 55974  97.5130 256.9430 0004007  44.2203 315.9365 15.45268908168276
TIANMU-1 05             
1 55975U 23039C   26086.80266432  .00016435  00000+0  35290-3 0  9991
2 55975  97.5176 257.3896 0003663  70.7610 289.4035 15.44772873168247
TIANMU-1 06             
1 55976U 23039D   26086.84338116  .00017717  00000+0  37361-3 0  9990
2 55976  97.5186 257.9889 0003870  64.2075 295.9573 15.45288014168272
FENGYUN 3G              
1 56232U 23055A   26086.84876256  .00029947  00000+0  47726-3 0  9990
2 56232  49.9933  45.4407 0004818  11.0851 349.0222 15.52929505167366
METEOR-M2 3             
1 57166U 23091A   26086.87509410  .00000007  00000+0  22006-4 0  9996
2 57166  98.6175 143.4842 0004813  57.8160 302.3485 14.24039458142947
TIANMU-1 07             
1 57399U 23101A   26086.71092013  .00006482  00000+0  23106-3 0  9999
2 57399  97.2694 139.2556 0004660  97.8821 262.2948 15.29231200149196
TIANMU-1 08             
1 57400U 23101B   26085.76300744  .00000258  00000+0  11605-4 0  9996
2 57400  97.2683 138.1078 0005815  81.6822 278.5077 15.29307245149049
TIANMU-1 09             
1 57401U 23101C   26086.85865235  .00006890  00000+0  24530-3 0  9997
2 57401  97.2640 138.6409 0005115  96.5309 263.6514 15.29250363149212
TIANMU-1 10             
1 57402U 23101D   26086.82627133  .00007148  00000+0  25386-3 0  9995
2 57402  97.2719 139.5738 0006527  86.2921 273.9066 15.29311033149206
FENGYUN 3F              
1 57490U 23111A   26086.86824973  .00000057  00000+0  47459-4 0  9996
2 57490  98.6890 158.3739 0000922  79.7854 280.3427 14.19923543137329
ARKTIKA-M 2             
1 58584U 23198A   26082.52027795  .00000173  00000+0  00000+0 0  9997
2 58584  63.2220 163.8934 6881218 267.7008  18.8555  2.00606565 16600
TIANMU-1 11             
1 58645U 23205A   26086.83862729  .00005671  00000+0  22248-3 0  9996
2 58645  97.3529 109.6960 0007194 296.8643  63.1860 15.26113829125117
TIANMU-1 12             
1 58646U 23205B   26086.80631852  .00006217  00000+0  24415-3 0  9990
2 58646  97.3517 109.4384 0005337 275.5645  84.4985 15.26046548125090
TIANMU-1 13             
1 58647U 23205C   26086.83661134  .00005723  00000+0  22465-3 0  9994
2 58647  97.3545 109.7151 0005768 250.6929 109.3686 15.26097685125097
TIANMU-1 14             
1 58648U 23205D   26086.82147715  .00005844  00000+0  22947-3 0  9997
2 58648  97.3480 108.9528 0006445 257.0955 102.9564 15.26071960125090
TIANMU-1 19             
1 58660U 23208A   26086.84586818  .00009543  00000+0  32909-3 0  9996
2 58660  97.4396 202.8586 0004092 231.7579 128.3293 15.30200877124889
TIANMU-1 20             
1 58661U 23208B   26086.81612113  .00009377  00000+0  31170-3 0  9996
2 58661  97.4338 203.3808 0006040 246.6956 113.3650 15.31386324124961
TIANMU-1 21             
1 58662U 23208C   26086.85577414  .00011343  00000+0  35287-3 0  9994
2 58662  97.4393 205.7651 0006091 240.0781 119.9857 15.33460860125091
TIANMU-1 22             
1 58663U 23208D   26086.80279497  .00008882  00000+0  31043-3 0  9990
2 58663  97.4393 202.8144 0002389 261.0231  99.0739 15.29789023124889
TIANMU-1 15             
1 58700U 24004A   26086.81910323  .00006046  00000+0  23730-3 0  9992
2 58700  97.4681 273.0371 0005638 275.7359  84.3236 15.26085469123367
TIANMU-1 16             
1 58701U 24004B   26086.86773965  .00006922  00000+0  27101-3 0  9996
2 58701  97.4624 272.3959 0004069 279.8403  80.2375 15.26123657123373
TIANMU-1 17             
1 58702U 24004C   26086.84965429  .00006510  00000+0  25482-3 0  9996
2 58702  97.4655 272.8400 0003290 281.6079  78.4790 15.26157674123364
TIANMU-1 18             
1 58703U 24004D   26086.83549019  .00006159  00000+0  24167-3 0  9997
2 58703  97.4672 273.0400 0002670 280.5984  79.4953 15.26098233123368
INSAT-3DS               
1 58990U 24033A   26086.84798419 -.00000175  00000+0  00000+0 0  9997
2 58990   0.0131 137.5243 0002042 226.6391 208.4550  1.00271602 46250
METEOR-M2 4             
1 59051U 24039A   26086.86784747  .00000040  00000+0  37732-4 0  9990
2 59051  98.6936  47.2233 0007972  50.7866 309.4018 14.22419992107704
GOES 19                 
1 60133U 24119A   26086.53159205 -.00000267  00000+0  00000+0 0  9996
2 60133   0.0337  10.9675 0000769  26.5130 263.6402  1.00270239  6143
FENGYUN 3H              
1 65815U 25219A   26086.79386557  .00000078  00000+0  56981-4 0  9993
2 65815  98.6707  29.1723 0000873  59.8464 300.2799 14.19937164 25835
OSCAR 7 (AO-7)          
1 07530U 74089B   26086.77423697 -.00000026  00000+0  13123-3 0  9991
2 07530 101.9958  99.1591 0011866 286.8474 247.4483 12.53696676350310
PHASE 3B (AO-10)        
1 14129U 83058B   26084.35916296 -.00000351  00000+0  00000+0 0  9990
2 14129  25.9114 233.6020 6040998  92.4738 333.4977  2.05874335293766
UOSAT 2 (UO-11)         
1 14781U 84021B   26086.86621394  .00001611  00000+0  17033-3 0  9992
2 14781  97.7978  53.3999 0009175  92.2519 267.9750 14.90567064245018
LUSAT (LO-19)           
1 20442U 90005G   26086.76124913  .00000143  00000+0  67612-4 0  9994
2 20442  98.8921 106.2993 0012697  85.7551 274.5083 14.34095246890720
EYESAT A (AO-27)        
1 22825U 93061C   26086.74769218  .00000091  00000+0  51647-4 0  9990
2 22825  98.6947 154.1683 0007964 347.1688  12.9290 14.30918833695356
ITAMSAT (IO-26)         
1 22826U 93061D   26086.75130269  .00000105  00000+0  56438-4 0  9999
2 22826  98.6895 154.0812 0008180 329.2020  30.8682 14.31343439695667
RADIO ROSTO (RS15)      
1 23439U 94085A   26086.69940778 -.00000057  00000+0 -42413-3 0  9999
2 23439  64.8144  75.0024 0153354  18.6764 341.9704 11.27583747286718
JAS-2 (FO-29)           
1 24278U 96046B   26086.61221864 -.00000035  00000+0  31314-5 0  9995
2 24278  98.5351 306.6052 0349101 308.2294  48.7893 13.53269872462135
TECHSAT 1B (GO-32)      
1 25397U 98043D   26086.58204910  .00000077  00000+0  53546-4 0  9991
2 25397  99.0046  77.2955 0002340  90.4507 269.6939 14.24410686439719
ISS (ZARYA)             
1 25544U 98067A   26086.84204457  .00011920  00000+0  22728-3 0  9992
2 25544  51.6344 342.6225 0006212 240.1567 119.8804 15.48591753559148
PCSAT (NO-44)           
1 26931U 01043C   26086.71865832  .00000146  00000+0  85441-4 0  9997
2 26931  67.0488  94.9824 0006904 264.7956  95.2359 14.31920637278781
SAUDISAT 1C (SO-50)     
1 27607U 02058C   26086.82693895  .00001492  00000+0  19326-3 0  9998
2 27607  64.5538  20.6755 0075438 277.3027  81.9509 14.82851961252393
CUTE-1 (CO-55)          
1 27844U 03031E   26086.75882497  .00000324  00000+0  15934-3 0  9997
2 27844  98.6773  96.3338 0010648  65.4799 294.7489 14.24280441180088
CUBESAT XI-IV (CO-57)   
1 27848U 03031J   26086.00378327  .00000290  00000+0  14632-3 0  9997
2 27848  98.6808  95.3669 0010636  83.7600 276.4790 14.23572976179680
MOZHAETS 4 (RS22)       
1 27939U 03042A   26086.86880854  .00001132  00000+0  18315-3 0  9995
2 27939  98.3460 268.9377 0011590 160.8950 336.2487 14.73302354203571
CUBESAT XI-V            
1 28895U 05043F   26086.38521992  .00001774  00000+0  28793-3 0  9995
2 28895  98.2871 240.3480 0015341 104.8640 255.4267 14.72389595 89716
CUTE-1.7+APD II (CO-65) 
1 32785U 08021C   26086.88866671  .00006939  00000+0  44740-3 0  9996
2 32785  97.8225  66.6927 0007753 313.8947  46.1640 15.08613328972931
